{
  "type": "FeatureCollection",
  "features": [
    {
      "type": "Feature",
      "properties": {
        "name": "Service Area"
      },
      "geometry": {
        "type": "MultiPolygon",
        "coordinates": [
          [
            [
              [
                10.8656093,
                55.7436007
              ],
              [
                10.892531,
                55.7455773
              ],
              [
                10.9210915,
                55.7497937
              ],
              [
                10.9508225,
                55.7515064
              ],
              [
                10.9749308,
                55.7487168
              ],
              [
                10.9994633,
                55.7446598
              ],
              [
                11.0188938,
                55.7379388
              ],
              [
                11.0463976,
                55.7341452
              ],
              [
                11.0881202,
                55.7387675
              ],
              [
                11.1323632,
                55.7544278
              ],
              [
                11.1560811,
                55.7523743
              ],
              [
                11.1816235,
                55.7559678
              ],
              [
                11.1902097,
                55.7393182
              ],
              [
                11.2110998,
                55.7332496
              ],
              [
                11.2171236,
                55.7364736
              ],
              [
                11.2145207,
                55.7436326
              ],
              [
                11.2175765,
                55.7498445
              ],
              [
                11.2246752,
                55.7475046
              ],
              [
                11.2299925,
                55.742607
              ],
              [
                11.2368715,
                55.7400951
              ],
              [
                11.2581706,
                55.7316142
              ],
              [
                11.2743618,
                55.7344562
              ],
              [
                11.2849579,
                55.7423459
              ],
              [
                11.2900851,
                55.7469635
              ],
              [
                11.2900851,
                55.7515805
              ],
              [
                11.2849579,
                55.7540812
              ],
              [
                11.2863252,
                55.7581204
              ],
              [
                11.2945287,
                55.7550429
              ],
              [
                11.3013649,
                55.7460015
              ],
              [
                11.3058085,
                55.7542735
              ],
              [
                11.3256335,
                55.7538888
              ],
              [
                11.3440914,
                55.7575434
              ],
              [
                11.3543457,
                55.7635053
              ],
              [
                11.3618656,
                55.7665821
              ],
              [
                11.3721199,
                55.775042
              ],
              [
                11.3765635,
                55.7806169
              ],
              [
                11.3804625,
                55.7892614
              ],
              [
                11.3741208,
                55.800048
              ],
              [
                11.3747712,
                55.8132987
              ],
              [
                11.3755843,
                55.8240786
              ],
              [
                11.3702182,
                55.8354948
              ],
              [
                11.3627382,
                55.8415212
              ],
              [
                11.35786,
                55.8395125
              ],
              [
                11.35412,
                55.8400603
              ],
              [
                11.3542826,
                55.8430733
              ],
              [
                11.3617546,
                55.8472192
              ],
              [
                11.3749258,
                55.8410111
              ],
              [
                11.378991,
                55.8355326
              ],
              [
                11.3851701,
                55.834802
              ],
              [
                11.3900484,
                55.8311491
              ],
              [
                11.403057,
                55.8326103
              ],
              [
                11.4194805,
                55.8390937
              ],
              [
                11.4476117,
                55.8486798
              ],
              [
                11.4626158,
                55.8492507
              ],
              [
                11.4847062,
                55.8475283
              ],
              [
                11.5006605,
                55.854073
              ],
              [
                11.5245918,
                55.8871241
              ],
              [
                11.5178419,
                55.9001991
              ],
              [
                11.5239782,
                55.9129257
              ],
              [
                11.5166147,
                55.9280547
              ],
              [
                11.4859335,
                55.9387102
              ],
              [
                11.4656839,
                55.9476448
              ],
              [
                11.4423662,
                55.9476448
              ],
              [
                11.3938899,
                55.9486756
              ],
              [
                11.3638223,
                55.9541726
              ],
              [
                11.3460272,
                55.9634471
              ],
              [
                11.3282321,
                55.967225
              ],
              [
                11.2877329,
                55.977183
              ],
              [
                11.270224,
                56.0121697
              ],
              [
                11.3171868,
                55.9881682
              ],
              [
                11.4141395,
                55.964134
              ],
              [
                11.4828654,
                55.9620733
              ],
              [
                11.5270463,
                55.953142
              ],
              [
                11.5528185,
                55.9565773
              ],
              [
                11.5890223,
                55.964134
              ],
              [
                11.6104725,
                55.9476549
              ],
              [
                11.6405401,
                55.9394076
              ],
              [
                11.665085,
                55.9445624
              ],
              [
                11.6976071,
                55.9490292
              ],
              [
                11.719084,
                55.9562439
              ],
              [
                11.7442426,
                55.9706692
              ],
              [
                11.7830952,
                55.9782779
              ],
              [
                11.7967795,
                55.9569671
              ],
              [
                11.7979694,
                55.9463073
              ],
              [
                11.7854751,
                55.9466404
              ],
              [
                11.7813103,
                55.9526369
              ],
              [
                11.7646511,
                55.9426423
              ],
              [
                11.7557265,
                55.9339782
              ],
              [
                11.7568005,
                55.9218666
              ],
              [
                11.7563215,
                55.9063068
              ],
              [
                11.7372825,
                55.8969674
              ],
              [
                11.707534,
                55.9016374
              ],
              [
                11.7076648,
                55.9167645
              ],
              [
                11.6887301,
                55.9103296
              ],
              [
                11.6786584,
                55.9137165
              ],
              [
                11.6718097,
                55.9066037
              ],
              [
                11.6718097,
                55.9012965
              ],
              [
                11.6679825,
                55.8973438
              ],
              [
                11.667781,
                55.8931648
              ],
              [
                11.6695939,
                55.8872909
              ],
              [
                11.6718097,
                55.8798343
              ],
              [
                11.6853057,
                55.8768964
              ],
              [
                11.6950111,
                55.8731556
              ],
              [
                11.7032699,
                55.8661483
              ],
              [
                11.7117301,
                55.8603834
              ],
              [
                11.714953,
                55.8521301
              ],
              [
                11.7246218,
                55.8454584
              ],
              [
                11.7305349,
                55.8395248
              ],
              [
                11.7337405,
                55.8326418
              ],
              [
                11.7350605,
                55.82777
              ],
              [
                11.739209,
                55.8246984
              ],
              [
                11.7286492,
                55.8152701
              ],
              [
                11.7231808,
                55.8116676
              ],
              [
                11.715261,
                55.8049917
              ],
              [
                11.7101696,
                55.8093365
              ],
              [
                11.6992328,
                55.8109259
              ],
              [
                11.6805741,
                55.8145068
              ],
              [
                11.6699006,
                55.8158818
              ],
              [
                11.6619808,
                55.8161996
              ],
              [
                11.6523639,
                55.8083588
              ],
              [
                11.6563238,
                55.8042259
              ],
              [
                11.648404,
                55.8005164
              ],
              [
                11.6503849,
                55.7960322
              ],
              [
                11.6244713,
                55.7861835
              ],
              [
                11.6114601,
                55.7819422
              ],
              [
                11.6303168,
                55.7735641
              ],
              [
                11.6507506,
                55.7737965
              ],
              [
                11.6633846,
                55.7753874
              ],
              [
                11.6765843,
                55.7790992
              ],
              [
                11.6833727,
                55.7851434
              ],
              [
                11.6965242,
                55.7866938
              ],
              [
                11.7025583,
                55.7916767
              ],
              [
                11.7176437,
                55.7913586
              ],
              [
                11.7319747,
                55.797825
              ],
              [
                11.7442946,
                55.7898427
              ],
              [
                11.751083,
                55.7771184
              ],
              [
                11.7606999,
                55.7684211
              ],
              [
                11.7628585,
                55.7633769
              ],
              [
                11.7532416,
                55.7614673
              ],
              [
                11.750036,
                55.7647561
              ],
              [
                11.7490931,
                55.7689993
              ],
              [
                11.743059,
                55.7645439
              ],
              [
                11.7441904,
                55.7598758
              ],
              [
                11.7528645,
                55.7575416
              ],
              [
                11.7670493,
                55.7538895
              ],
              [
                11.7710092,
                55.7512366
              ],
              [
                11.7720983,
                55.7466111
              ],
              [
                11.7711977,
                55.7440195
              ],
              [
                11.7638436,
                55.7441257
              ],
              [
                11.7517331,
                55.7386501
              ],
              [
                11.7369593,
                55.7388579
              ],
              [
                11.7209311,
                55.7353546
              ],
              [
                11.7077314,
                55.733762
              ],
              [
                11.6932118,
                55.7347176
              ],
              [
                11.6803126,
                55.7334442
              ],
              [
                11.6576845,
                55.732064
              ],
              [
                11.6595702,
                55.7250558
              ],
              [
                11.6531589,
                55.7234628
              ],
              [
                11.6647237,
                55.7195245
              ],
              [
                11.6679293,
                55.7163381
              ],
              [
                11.6945173,
                55.7200555
              ],
              [
                11.7048885,
                55.7197369
              ],
              [
                11.7186538,
                55.7236664
              ],
              [
                11.7334421,
                55.7207054
              ],
              [
                11.7502245,
                55.7238915
              ],
              [
                11.7553158,
                55.7233605
              ],
              [
                11.7671956,
                55.7342975
              ],
              [
                11.7836551,
                55.7252843
              ],
              [
                11.7930835,
                55.7137075
              ],
              [
                11.7947806,
                55.7055273
              ],
              [
                11.793272,
                55.7002146
              ],
              [
                11.8006262,
                55.6972392
              ],
              [
                11.8024461,
                55.699135
              ],
              [
                11.8079146,
                55.6960532
              ],
              [
                11.8098002,
                55.6905267
              ],
              [
                11.8131944,
                55.6860623
              ],
              [
                11.8094231,
                55.6823416
              ],
              [
                11.8048975,
                55.6837236
              ],
              [
                11.8069717,
                55.6775574
              ],
              [
                11.8092345,
                55.6748992
              ],
              [
                11.8088574,
                55.6718155
              ],
              [
                11.8028233,
                55.6731979
              ],
              [
                11.8011262,
                55.6760688
              ],
              [
                11.8022576,
                55.6793648
              ],
              [
                11.7990519,
                55.6803217
              ],
              [
                11.7908815,
                55.6793699
              ],
              [
                11.7916358,
                55.6716078
              ],
              [
                11.7886187,
                55.6690556
              ],
              [
                11.7822074,
                55.669481
              ],
              [
                11.7780589,
                55.6671413
              ],
              [
                11.7712705,
                55.6604406
              ],
              [
                11.7731562,
                55.6594833
              ],
              [
                11.7822074,
                55.6585259
              ],
              [
                11.7786246,
                55.661717
              ],
              [
                11.7822074,
                55.6643761
              ],
              [
                11.7865444,
                55.6636316
              ],
              [
                11.7899386,
                55.6616106
              ],
              [
                11.79371,
                55.662887
              ],
              [
                11.7976699,
                55.6648015
              ],
              [
                11.8033269,
                55.6615043
              ],
              [
                11.8106598,
                55.6657634
              ],
              [
                11.8131112,
                55.6755469
              ],
              [
                11.8261223,
                55.6833081
              ],
              [
                11.8264583,
                55.6895769
              ],
              [
                11.8307953,
                55.6941471
              ],
              [
                11.8341895,
                55.6896832
              ],
              [
                11.834001,
                55.6829863
              ],
              [
                11.8372066,
                55.6859628
              ],
              [
                11.838338,
                55.6920215
              ],
              [
                11.8347552,
                55.6971228
              ],
              [
                11.8373952,
                55.7030735
              ],
              [
                11.8458807,
                55.7159281
              ],
              [
                11.8553652,
                55.7314502
              ],
              [
                11.8657364,
                55.7326181
              ],
              [
                11.875919,
                55.7377141
              ],
              [
                11.8564966,
                55.7347415
              ],
              [
                11.8531024,
                55.7418541
              ],
              [
                11.8551766,
                55.7519369
              ],
              [
                11.8504624,
                55.7498145
              ],
              [
                11.8459368,
                55.7562877
              ],
              [
                11.8521595,
                55.7573487
              ],
              [
                11.856308,
                55.7626537
              ],
              [
                11.8572509,
                55.7675336
              ],
              [
                11.8570623,
                55.7731554
              ],
              [
                11.8613993,
                55.7824878
              ],
              [
                11.861965,
                55.7966943
              ],
              [
                11.8762961,
                55.8006161
              ],
              [
                11.8772389,
                55.806657
              ],
              [
                11.8747876,
                55.8140744
              ],
              [
                11.9141447,
                55.8208378
              ],
              [
                11.9312169,
                55.8187064
              ],
              [
                11.9340623,
                55.8227026
              ],
              [
                11.9449695,
                55.8277639
              ],
              [
                11.9523201,
                55.8372187
              ],
              [
                11.9572994,
                55.8477362
              ],
              [
                11.9546912,
                55.858517
              ],
              [
                11.9428355,
                55.8686295
              ],
              [
                11.9338252,
                55.8724876
              ],
              [
                11.9276602,
                55.8802025
              ],
              [
                11.9274231,
                55.8912402
              ],
              [
                11.9036822,
                55.91264
              ],
              [
                11.9015158,
                55.9259936
              ],
              [
                11.9045487,
                55.9388572
              ],
              [
                11.9296789,
                55.935945
              ],
              [
                11.9670315,
                55.9301952
              ],
              [
                11.9781156,
                55.9194826
              ],
              [
                11.9864287,
                55.9151346
              ],
              [
                11.9969586,
                55.9154452
              ],
              [
                12.0049945,
                55.9154452
              ],
              [
                12.0216206,
                55.9100096
              ],
              [
                12.0304879,
                55.9016217
              ],
              [
                12.0127534,
                55.8887257
              ],
              [
                12.003609,
                55.8776908
              ],
              [
                12.0033319,
                55.8610548
              ],
              [
                12.0291024,
                55.8535896
              ],
              [
                12.0369606,
                55.8473255
              ],
              [
                12.0609782,
                55.8714249
              ],
              [
                12.0405996,
                55.8995899
              ],
              [
                12.0362328,
                55.9248802
              ],
              [
                12.0100317,
                55.9562662
              ],
              [
                11.9801917,
                55.9648216
              ],
              [
                11.952535,
                55.953414
              ],
              [
                11.9059554,
                55.9415954
              ],
              [
                11.8644704,
                55.9379268
              ],
              [
                11.8411806,
                55.950154
              ],
              [
                11.8389972,
                55.9697095
              ],
              [
                11.9103137,
                55.9994284
              ],
              [
                11.9678104,
                56.0181454
              ],
              [
                12.01439,
                56.0360402
              ],
              [
                12.0452414,
                56.0556734
              ],
              [
                12.1129274,
                56.0828924
              ],
              [
                12.1711519,
                56.1068455
              ],
              [
                12.2228262,
                56.1206422
              ],
              [
                12.2621278,
                56.1315949
              ],
              [
                12.3117879,
                56.1310808
              ],
              [
                12.3467226,
                56.1217509
              ],
              [
                12.3802017,
                56.1083604
              ],
              [
                12.431876,
                56.0965892
              ],
              [
                12.5157709,
                56.0909085
              ],
              [
                12.5521613,
                56.0762888
              ],
              [
                12.587096,
                56.0576
              ],
              [
                12.6300366,
                56.0384955
              ],
              [
                12.6052911,
                56.0108382
              ],
              [
                12.5659896,
                55.9884539
              ],
              [
                12.5443952,
                55.9576628
              ],
              [
                12.5254722,
                55.9234235
              ],
              [
                12.5327503,
                55.9083323
              ],
              [
                12.5560401,
                55.8748661
              ],
              [
                12.5778743,
                55.8479089
              ],
              [
                12.5800577,
                55.8221595
              ],
              [
                12.5946138,
                55.8098919
              ],
              [
                12.5997085,
                55.779206
              ],
              [
                12.6084422,
                55.7628303
              ],
              [
                12.5909748,
                55.7390734
              ],
              [
                12.5989807,
                55.72555
              ],
              [
                12.6295486,
                55.7308779
              ],
              [
                12.6448325,
                55.7239105
              ],
              [
                12.6113534,
                55.7030006
              ],
              [
                12.6557496,
                55.7144819
              ],
              [
                12.639656,
                55.6887906
              ],
              [
                12.6563955,
                55.6760706
              ],
              [
                12.6476618,
                55.664578
              ],
              [
                12.6593067,
                55.6382966
              ],
              [
                12.6840522,
                55.6337777
              ],
              [
                12.6869634,
                55.6152859
              ],
              [
                12.6782297,
                55.6021308
              ],
              [
                12.6893581,
                55.5850579
              ],
              [
                12.6405951,
                55.5739501
              ],
              [
                12.6063881,
                55.5570766
              ],
              [
                12.5969267,
                55.5521367
              ],
              [
                12.5750925,
                55.55543
              ],
              [
                12.5226904,
                55.5760073
              ],
              [
                12.5023118,
                55.6019194
              ],
              [
                12.4797498,
                55.5969851
              ],
              [
                12.433898,
                55.6060308
              ],
              [
                12.3909574,
                55.5998635
              ],
              [
                12.3560227,
                55.5871146
              ],
              [
                12.3067996,
                55.5776546
              ],
              [
                12.2551253,
                55.5500797
              ],
              [
                12.228052,
                55.5184274
              ],
              [
                12.2040594,
                55.4759674
              ],
              [
                12.2178877,
                55.4615277
              ],
              [
                12.201876,
                55.4528614
              ],
              [
                12.2076984,
                55.4380004
              ],
              [
                12.222498,
                55.4318616
              ],
              [
                12.2571893,
                55.417764
              ],
              [
                12.3066801,
                55.407022
              ],
              [
                12.3780046,
                55.3965794
              ],
              [
                12.4474378,
                55.3577366
              ],
              [
                12.4573355,
                55.3320494
              ],
              [
                12.4522409,
                55.3043024
              ],
              [
                12.4651656,
                55.2860529
              ],
              [
                12.4054855,
                55.2520518
              ],
              [
                12.3727342,
                55.2528814
              ],
              [
                12.3567224,
                55.2325502
              ],
              [
                12.264291,
                55.2375302
              ],
              [
                12.2086128,
                55.2217434
              ],
              [
                12.1609424,
                55.2063947
              ],
              [
                12.1245521,
                55.1835465
              ],
              [
                12.1107238,
                55.1598536
              ],
              [
                12.1289189,
                55.1365627
              ],
              [
                12.1735882,
                55.1209595
              ],
              [
                12.1874165,
                55.1088881
              ],
              [
                12.1808663,
                55.0909824
              ],
              [
                12.1619433,
                55.0743187
              ],
              [
                12.1321032,
                55.0755687
              ],
              [
                12.1379257,
                55.0555637
              ],
              [
                12.1575765,
                55.0313777
              ],
              [
                12.1859609,
                54.9888082
              ],
              [
                12.215801,
                54.9812913
              ],
              [
                12.2674753,
                54.9883907
              ],
              [
                12.2696587,
                55.0155238
              ],
              [
                12.1808663,
                55.0397194
              ],
              [
                12.174316,
                55.0488932
              ],
              [
                12.2230791,
                55.0676513
              ],
              [
                12.2718421,
                55.0643171
              ],
              [
                12.2849426,
                55.0401364
              ],
              [
                12.3242442,
                55.0301263
              ],
              [
                12.3620901,
                55.0309606
              ],
              [
                12.407942,
                55.0263719
              ],
              [
                12.4442308,
                55.0293836
              ],
              [
                12.4995441,
                55.0189536
              ],
              [
                12.5257451,
                55.0085208
              ],
              [
                12.5475793,
                54.9897351
              ],
              [
                12.5606799,
                54.9617488
              ],
              [
                12.5403013,
                54.9404328
              ],
              [
                12.4889596,
                54.9435532
              ],
              [
                12.4356557,
                54.9566082
              ],
              [
                12.3941136,
                54.9624928
              ],
              [
                12.3500851,
                54.9611684
              ],
              [
                12.3088588,
                54.9467034
              ],
              [
                12.2865907,
                54.9287517
              ],
              [
                12.2528177,
                54.9119938
              ],
              [
                12.2379901,
                54.8904483
              ],
              [
                12.1945931,
                54.8747418
              ],
              [
                12.1603862,
                54.8785105
              ],
              [
                12.1320018,
                54.8751606
              ],
              [
                12.0681461,
                54.9431192
              ],
              [
                11.9043223,
                54.9213708
              ],
              [
                11.8788491,
                54.951475
              ],
              [
                11.8380919,
                54.9706965
              ],
              [
                11.843913,
                55.0155804
              ],
              [
                11.7827772,
                55.0418611
              ],
              [
                11.7340142,
                55.0514513
              ],
              [
                11.6104677,
                55.0843676
              ],
              [
                11.7163305,
                55.068981
              ],
              [
                11.7635025,
                55.062699
              ],
              [
                11.7953162,
                55.0526459
              ],
              [
                11.8189022,
                55.0438473
              ],
              [
                11.8320665,
                55.0451044
              ],
              [
                11.8294095,
                55.0524909
              ],
              [
                11.8082114,
                55.0671924
              ],
              [
                11.8062241,
                55.0725026
              ],
              [
                11.7931409,
                55.077338
              ],
              [
                11.780389,
                55.0802769
              ],
              [
                11.7707836,
                55.0843531
              ],
              [
                11.7729365,
                55.0797081
              ],
              [
                11.7793953,
                55.0775276
              ],
              [
                11.7787329,
                55.0739248
              ],
              [
                11.7671402,
                55.0744937
              ],
              [
                11.7574689,
                55.076518
              ],
              [
                11.7256962,
                55.1046528
              ],
              [
                11.7032072,
                55.138528
              ],
              [
                11.6785242,
                55.158902
              ],
              [
                11.6560352,
                55.1617222
              ],
              [
                11.6351917,
                55.1786392
              ],
              [
                11.5941037,
                55.1845216
              ],
              [
                11.5430921,
                55.1889057
              ],
              [
                11.5046962,
                55.1986115
              ],
              [
                11.4628937,
                55.1844023
              ],
              [
                11.411882,
                55.1859681
              ],
              [
                11.3773258,
                55.1847155
              ],
              [
                11.3477062,
                55.1884733
              ],
              [
                11.3049222,
                55.1906652
              ],
              [
                11.2676661,
                55.1957535
              ],
              [
                11.2468226,
                55.2017015
              ],
              [
                11.2347553,
                55.217037
              ],
              [
                11.242983,
                55.2264231
              ],
              [
                11.2292702,
                55.2420618
              ],
              [
                11.241886,
                55.2561314
              ],
              [
                11.2336583,
                55.2836308
              ],
              [
                11.2001991,
                55.2983102
              ],
              [
                11.1754453,
                55.3039441
              ],
              [
                11.1491167,
                55.3183039
              ],
              [
                11.1266277,
                55.326418
              ],
              [
                11.1096239,
                55.3442008
              ],
              [
                11.0804924,
                55.3420199
              ],
              [
                11.1105061,
                55.3722037
              ],
              [
                11.1494505,
                55.3693984
              ],
              [
                11.1680999,
                55.3778137
              ],
              [
                11.1944285,
                55.3837345
              ],
              [
                11.2081413,
                55.3918352
              ],
              [
                11.2097868,
                55.4033602
              ],
              [
                11.1904919,
                55.4190595
              ],
              [
                11.2020106,
                55.4427127
              ],
              [
                11.1992755,
                55.4538364
              ],
              [
                11.191082,
                55.4594116
              ],
              [
                11.1793769,
                55.4720192
              ],
              [
                11.1758653,
                55.4777245
              ],
              [
                11.1740365,
                55.4884226
              ],
              [
                11.1697787,
                55.4990789
              ],
              [
                11.1559666,
                55.5054432
              ],
              [
                11.1449638,
                55.5108786
              ],
              [
                11.1377067,
                55.5185663
              ],
              [
                11.1271721,
                55.525325
              ],
              [
                11.1229583,
                55.5209519
              ],
              [
                11.117808,
                55.5144575
              ],
              [
                11.1140624,
                55.5112762
              ],
              [
                11.1031672,
                55.5093209
              ],
              [
                11.0779356,
                55.5136691
              ],
              [
                11.0833081,
                55.5281267
              ],
              [
                11.0914535,
                55.5370734
              ],
              [
                11.1033927,
                55.5358812
              ],
              [
                11.1160342,
                55.5381332
              ],
              [
                11.1349965,
                55.5365435
              ],
              [
                11.1478721,
                55.5415772
              ],
              [
                11.154427,
                55.5546882
              ],
              [
                11.1555975,
                55.5677949
              ],
              [
                11.1451738,
                55.5907507
              ],
              [
                11.1210613,
                55.618522
              ],
              [
                11.074475,
                55.6357039
              ],
              [
                11.0557468,
                55.640857
              ],
              [
                11.0402961,
                55.6483873
              ],
              [
                11.0088661,
                55.6541195
              ],
              [
                10.9594705,
                55.6561006
              ],
              [
                10.942147,
                55.6584778
              ],
              [
                10.9282504,
                55.6643142
              ],
              [
                10.9345463,
                55.674635
              ],
              [
                10.9572542,
                55.6727869
              ],
              [
                10.977387,
                55.6689583
              ],
              [
                10.9872193,
                55.6681661
              ],
              [
                10.9982487,
                55.6705126
              ],
              [
                11.04401,
                55.6652201
              ],
              [
                11.0568856,
                55.6653521
              ],
              [
                11.0695271,
                55.6640317
              ],
              [
                11.0777207,
                55.6662764
              ],
              [
                11.0901657,
                55.6657953
              ],
              [
                11.0868883,
                55.6704164
              ],
              [
                11.0840791,
                55.6764889
              ],
              [
                11.0744809,
                55.6795249
              ],
              [
                11.0761196,
                55.6694922
              ],
              [
                11.0569232,
                55.6838803
              ],
              [
                11.0452181,
                55.6867837
              ],
              [
                11.0353858,
                55.692194
              ],
              [
                11.0180623,
                55.6998463
              ],
              [
                11.0057382,
                55.7111614
              ],
              [
                10.99614,
                55.7213152
              ],
              [
                10.9872441,
                55.7251387
              ],
              [
                10.9753049,
                55.7268526
              ],
              [
                10.9654726,
                55.7289618
              ],
              [
                10.957279,
                55.7275117
              ],
              [
                10.9486173,
                55.7264571
              ],
              [
                10.9401614,
                55.7272114
              ],
              [
                10.9258811,
                55.7254976
              ],
              [
                10.9076212,
                55.728266
              ],
              [
                10.8902976,
                55.7323524
              ],
              [
                10.8656093,
                55.7436007
              ]
            ]
          ],
          [
            [
              [
                10.9478874,
                54.8432665
              ],
              [
                11.009814,
                54.8419123
              ],
              [
                11.0105979,
                54.8861239
              ],
              [
                11.0168689,
                54.9167728
              ],
              [
                11.0929054,
                54.9537008
              ],
              [
                11.2482267,
                54.9698091
              ],
              [
                11.3108318,
                54.9395531
              ],
              [
                11.3257255,
                54.9269429
              ],
              [
                11.3672712,
                54.9152299
              ],
              [
                11.3774617,
                54.8926954
              ],
              [
                11.4323334,
                54.8782666
              ],
              [
                11.4770146,
                54.8620281
              ],
              [
                11.4770146,
                54.8439776
              ],
              [
                11.5187692,
                54.8339261
              ],
              [
                11.5838313,
                54.8276049
              ],
              [
                11.5618827,
                54.8393434
              ],
              [
                11.5540439,
                54.851981
              ],
              [
                11.5681537,
                54.8601031
              ],
              [
                11.6081317,
                54.8551398
              ],
              [
                11.6246268,
                54.8586056
              ],
              [
                11.6410883,
                54.8635685
              ],
              [
                11.6418722,
                54.8834139
              ],
              [
                11.630114,
                54.9046017
              ],
              [
                11.6676877,
                54.9042951
              ],
              [
                11.7006107,
                54.8808525
              ],
              [
                11.7492113,
                54.8776957
              ],
              [
                11.7351014,
                54.8993372
              ],
              [
                11.7413725,
                54.9254718
              ],
              [
                11.7076656,
                54.9281744
              ],
              [
                11.698259,
                54.9340295
              ],
              [
                11.7484274,
                54.9704917
              ],
              [
                11.7837021,
                54.9587914
              ],
              [
                11.8080024,
                54.9434858
              ],
              [
                11.8221123,
                54.9718415
              ],
              [
                11.8377899,
                54.9713915
              ],
              [
                11.8799285,
                54.9511919
              ],
              [
                11.9034449,
                54.9219207
              ],
              [
                11.9051823,
                54.9224075
              ],
              [
                11.9859689,
                54.9324445
              ],
              [
                12.0696277,
                54.9448892
              ],
              [
                12.1221478,
                54.8876689
              ],
              [
                12.1465579,
                54.858826
              ],
              [
                12.1731001,
                54.8312702
              ],
              [
                12.0696277,
                54.7738884
              ],
              [
                12.0211989,
                54.7202664
              ],
              [
                11.987492,
                54.7035113
              ],
              [
                11.9671111,
                54.675873
              ],
              [
                11.9710305,
                54.6160011
              ],
              [
                11.9796817,
                54.5526637
              ],
              [
                11.911484,
                54.5735706
              ],
              [
                11.9154034,
                54.5944668
              ],
              [
                11.8895353,
                54.6126288
              ],
              [
                11.8644511,
                54.6475677
              ],
              [
                11.8691544,
                54.6897266
              ],
              [
                11.9020774,
                54.7123746
              ],
              [
                11.878561,
                54.721883
              ],
              [
                11.8385831,
                54.7236938
              ],
              [
                11.826041,
                54.7164499
              ],
              [
                11.8229054,
                54.7055815
              ],
              [
                11.8691544,
                54.6915389
              ],
              [
                11.8283852,
                54.6409797
              ],
              [
                11.7923266,
                54.6396187
              ],
              [
                11.7476454,
                54.6464229
              ],
              [
                11.684151,
                54.6568536
              ],
              [
                11.6159534,
                54.6536793
              ],
              [
                11.5681366,
                54.64733
              ],
              [
                11.519536,
                54.631906
              ],
              [
                11.4654482,
                54.6055811
              ],
              [
                11.4042301,
                54.6297683
              ],
              [
                11.3595489,
                54.6388424
              ],
              [
                11.3172193,
                54.6578914
              ],
              [
                11.2845207,
                54.6862265
              ],
              [
                11.2539493,
                54.7007239
              ],
              [
                11.2139714,
                54.7097822
              ],
              [
                11.151536,
                54.7259669
              ],
              [
                11.0654696,
                54.7397701
              ],
              [
                10.9800265,
                54.7700781
              ],
              [
                10.9580779,
                54.8080442
              ],
              [
                10.9447519,
                54.824756
              ],
              [
                10.9478874,
                54.8432665
              ]
            ]
          ]
        ]
      }
    }
  ]
}